,ID,Address,Suburb,Price,Type,Date,Rooms,Bathroom,Car,Landsize,Age,Lattitude,Longtitude,train_station_id,distance_to_train_stat,travel_min_to_CBD,over_priced?,crime_A_average,crime_B_average,crime_C_average
271,ID186307087,13 McKinley Dr,ROXBURGH PARK,460000.0,h,29/07/2017,3,2.0,3.0,266.0,19.0,-37.63544,144.93274,40220,389.4546309163041,2550.0,0,53.77272727272727,230.73333333333332,55.111111111111114
272,ID438790767,6/22 Powers St,DONVALE,920000.0,t,15/07/2017,3,2.0,2.0,239.0,12.0,-37.77323,145.18029,19900,5089.605930771143,3737.1428571428573,0,415.875,2214.3333333333335,356.44444444444446
273,ID663355404,6 Gregory St,BRUNSWICK,1100000.0,h,8/07/2017,3,1.0,1.0,193.0,23.0,-37.76418,144.95715,19968,448.67063653946747,5025.0,0,111.5,355.93333333333334,60.333333333333336
274,ID230635266,68 Devon Rd,PASCOE VALE,640000.0,t,18/06/2016,4,2.0,2.0,353.0,36.0,-37.7214,144.9246,20033,470.2375365501723,2004.0,0,85.95652173913044,1043.8666666666666,112.77777777777777
275,ID505010869,43 The Crossway,KEILOR EAST,860000.0,h,15/07/2017,3,1.0,1.0,568.0,59.0,-37.7465,144.8613,20003,4714.821086798769,2845.0,0,84.52380952380952,237.93333333333334,59.111111111111114
276,ID327118750,1/572 Moreland Rd,BRUNSWICK WEST,797500.0,t,11/02/2017,3,2.0,2.0,262.0,9.0,-37.7519,144.9324,20035,1027.4771119739473,2152.5,0,117.66666666666667,1162.6,191.88888888888889
277,ID235847962,1/12 Clarendon St,MAIDSTONE,490000.0,h,26/07/2016,3,1.0,2.0,269.0,59.0,-37.7844,144.8665,20022,1682.478746529172,2190.0,0,87.14285714285714,348.73333333333335,76.0
278,ID728551999,73 Pecham St,GLENROY,963500.0,h,27/05/2017,3,2.0,6.0,697.0,59.0,-37.69647,144.9113,20031,427.6432037466078,1953.3333333333333,0,230.20833333333334,1620.8235294117646,177.77777777777777
279,ID894742436,1/58 Coorigil Rd,CARNEGIE,605000.0,u,27/11/2016,2,1.0,1.0,0.0,46.0,-37.8956,145.0613,19919,803.9610849868982,3909.230769230769,0,462.9583333333333,3343.0588235294117,509.8333333333333
280,ID547332329,11/1 Windsor St,BRAYBROOK,475000.0,t,25/02/2017,2,1.0,1.0,115.0,39.0,-37.7948,144.85399999999996,20022,929.8114036729227,2190.0,0,362.1666666666667,2108.0625,314.0
281,ID232000647,21 Ambon St,ASHBURTON,1550000.0,h,9/09/2017,4,2.0,2.0,670.0,119.0,-37.87042,145.08099,19847,261.48560338060435,2790.0,0,209.08333333333334,1886.9375,215.44444444444446
282,ID953860495,5/248 Gordon St,FOOTSCRAY,395000.0,u,15/07/2017,2,1.0,1.0,0.0,49.0,-37.79711,144.88825,20023,582.9053856132091,2070.0,1,42.57142857142857,147.0,51.333333333333336
283,ID724903925,9 Kevin St,PASCOE VALE,815000.0,h,8/10/2016,3,1.0,1.0,438.0,59.0,-37.7338,144.9441,20034,1440.6137622128272,2033.3333333333333,1,85.95652173913044,1043.8666666666666,112.77777777777777
284,ID918027457,66 The Avenue,SPOTSWOOD,1070000.0,h,27/11/2016,3,1.0,2.0,526.0,69.0,-37.8267,144.8779,19995,831.356258542588,900.0,0,137.58333333333334,681.8125,137.2
285,ID975703899,22/3 Alfred Sq,ST KILDA,520000.0,u,8/04/2017,1,1.0,1.0,2422.0,49.0,-37.8644,144.9741,19956,1797.4525110445459,3026.6666666666665,1,176.5,1272.8,233.11111111111111
286,ID626752124,4 French Ct,WATSONIA,660000.0,h,3/12/2016,3,1.0,0.0,583.0,49.0,-37.7137,145.0778,19984,609.6962916721874,3460.0,0,36.6,96.93333333333334,18.3
287,ID179153611,57 Yarralea St,ALPHINGTON,1285000.0,t,13/05/2017,3,2.0,2.0,528.0,52.0,-37.7817,145.0319,19931,372.40535187341777,2430.0,0,151.83333333333334,1120.7333333333333,125.11111111111111
288,ID347514772,27 Station Rd,OAK PARK,763000.0,t,23/09/2017,3,2.0,2.0,220.0,23.0,-37.71467,144.91997,20033,389.7311308741946,2004.0,0,26.625,68.93333333333334,13.11111111111111
289,ID733789186,21 Dunstan St,PRESTON,925000.0,h,10/12/2016,3,1.0,2.0,693.0,69.0,-37.7315,144.988,20011,1345.5150307993365,2270.0,0,85.95652173913044,1043.8666666666666,112.77777777777777
290,ID954924677,5 Tuxen Ct,BRIGHTON EAST,1655000.0,h,27/11/2016,5,2.0,2.0,679.0,69.0,-37.9291,145.0283,19938,767.9709674267087,2630.0,0,343.0416666666667,1929.3125,260.0
291,ID738583376,45 Milford St,NEWPORT,962000.0,t,3/12/2016,3,2.0,2.0,283.0,8.0,-37.8477,144.8753,19994,916.4727961551807,1020.0,1,11.833333333333334,52.2,6.666666666666667
292,ID414348995,2/9 Grace St,ESSENDON NORTH,800000.0,t,17/06/2017,3,2.0,1.0,161.0,7.0,-37.73566,144.89368000000005,20036,2722.2551429299065,2032.5,0,47.19047619047619,371.0,27.333333333333332
293,ID638217358,6 Blackwood Av,MENTONE,815000.0,h,23/09/2017,3,2.0,2.0,520.0,39.0,-37.98227,145.08133999999995,19864,1281.074612438518,2446.153846153846,0,12.583333333333334,13.6,5.142857142857143
294,ID367648858,1 Giuliano Ct,KEILOR EAST,700000.0,h,4/03/2017,3,2.0,2.0,288.0,20.0,-37.7514,144.8731,22253,3827.7156895824255,1110.0,0,84.52380952380952,237.93333333333334,59.111111111111114
295,ID298408121,87A Wyong St,KEILOR EAST,635000.0,h,8/04/2017,3,2.0,1.0,162.0,4.0,-37.7308,144.8664,20033,5059.507821410254,2004.0,0,84.52380952380952,237.93333333333334,59.111111111111114
296,ID905697945,35 Dixon St,MALVERN,2050000.0,h,4/06/2016,3,2.0,1.0,231.0,129.0,-37.8607,145.0373,19944,936.5796396684077,1560.0,0,87.14285714285714,348.73333333333335,76.0
297,ID696981493,10/1 Ruabon Rd,TOORAK,450000.0,u,6/08/2016,2,1.0,1.0,0.0,49.0,-37.8474,145.0078,19947,587.4866908493341,2777.1428571428573,0,79.68181818181819,512.1875,63.5
298,ID304650888,20 Hocking St,FOOTSCRAY,810000.0,h,3/09/2017,3,2.0,2.0,121.0,5.0,-37.79949000000001,144.88487,20023,261.1928259395777,2070.0,0,42.57142857142857,147.0,51.333333333333336
299,ID996450383,1/76 Scotsburn Av,CLAYTON,810000.0,u,16/09/2017,3,1.0,2.0,340.0,64.0,-37.92559,145.10804,22249,1101.7521265219543,2928.0,0,14.941176470588236,74.33333333333333,4.875
300,ID626915403,2/37 Wills St,KEW,1330000.0,t,19/11/2016,3,2.0,2.0,205.0,24.0,-37.7993,145.0267,19931,2361.4806645504327,2430.0,0,37.04545454545455,154.33333333333334,24.666666666666668
301,ID436968030,23 Cromwell St,GLENROY,660000.0,h,28/08/2016,3,1.0,2.0,657.0,69.0,-37.7019,144.9225,20032,549.8534832880493,1833.3333333333333,0,210.45833333333334,1676.0,169.77777777777777
302,ID612960054,60 Shiel St,NORTH MELBOURNE,1550000.0,h,3/09/2017,3,2.0,1.0,173.0,139.0,-37.79614,144.94248000000005,19972,593.2304245405079,3612.0,0,14.055555555555555,58.666666666666664,7.666666666666667
303,ID486211645,2/41 Harpley St,CHELTENHAM,955000.0,t,19/08/2017,2,2.0,1.0,836.0,10.0,-37.97342,145.07201,19865,1115.5585671221725,3087.6923076923076,0,161.04166666666666,848.4666666666667,160.0
304,ID184006862,61 Truro Cr,KEILOR LODGE,680000.0,h,9/09/2017,3,2.0,2.0,651.0,28.0,-37.69727,144.79371,20000,1772.9374372501557,2160.0,0,177.47826086956522,1281.7333333333333,207.5
305,ID839777886,48 Martin Rd,GLEN IRIS,2115000.0,h,7/05/2016,3,2.0,2.0,745.0,99.0,-37.8501,145.059,19912,736.253863615331,3400.0,0,240.45833333333334,1683.625,169.1818181818182
306,ID511312186,8/15 Wrexham Rd,WINDSOR,580000.0,u,28/05/2016,2,1.0,1.0,0.0,49.0,-37.8565,145.0011,19957,798.2660795645767,3217.5,0,130.7826086956522,762.75,109.44444444444444
307,ID377169026,16 North Rd,RESERVOIR,765000.0,h,15/10/2016,3,1.0,2.0,551.0,49.0,-37.7214,145.0241,20010,1587.74113948201,4306.666666666667,1,117.80952380952381,378.06666666666666,47.8
308,ID782772028,3/24 City Rd,RINGWOOD,475000.0,u,17/06/2017,2,1.0,2.0,750.0,44.0,-37.82214000000001,145.23086999999995,19902,715.924427744259,3784.6153846153848,0,23.866666666666667,90.46666666666667,7.333333333333333
309,ID149338580,3/157 Deakin St,ESSENDON,770000.0,t,16/09/2017,3,1.0,1.0,116.0,18.0,-37.73899,144.89291,20036,2631.445714486673,2032.5,0,156.70833333333334,1480.2666666666667,132.1818181818182
310,ID495734800,7 Donald St,SUNSHINE,762500.0,h,27/11/2016,3,1.0,1.0,510.0,74.0,-37.7903,144.8387,22241,548.4860972692936,960.0,0,300.4583333333333,919.8235294117648,195.55555555555554
311,ID492424116,413a Wellington St,CLIFTON HILL,1209000.0,h,8/10/2016,2,1.0,1.0,140.0,109.0,-37.7919,144.9884,19974,715.04463688555,3810.0,0,133.91666666666666,1156.7333333333333,139.88888888888889
312,ID947944715,43/100 Commercial Rd,SOUTH YARRA,1230000.0,u,3/12/2016,3,2.0,2.0,0.0,21.0,-37.8453,144.9849,19958,640.77769237584,3391.764705882353,0,137.58333333333334,681.8125,137.2
313,ID654996781,14/7 Curran St,NORTH MELBOURNE,550055.0,u,27/11/2016,2,1.0,2.0,1004.0,48.0,-37.7926,144.9441,19971,650.4335193645688,3120.0,0,11.833333333333334,52.2,6.666666666666667
314,ID248621768,1 Donal St,MURRUMBEENA,1400000.0,h,25/02/2017,4,2.0,2.0,557.0,64.0,-37.906,145.07399999999996,19918,1278.2245708104615,3863.076923076923,0,42.57142857142857,147.0,51.333333333333336
316,ID999230254,38 Armstrong Dr,ROWVILLE,970000.0,h,12/08/2017,5,3.0,2.0,725.0,44.0,-37.92739,145.25705,19867,5881.509829655432,3420.0,0,219.45454545454547,1368.1333333333334,143.36363636363637
317,ID492107999,71 Barkly St,ST KILDA,2000000.0,h,4/03/2017,5,2.0,2.0,436.0,109.0,-37.8618,144.982,19957,1089.55038989397,4196.8421052631575,0,176.5,1272.8,233.11111111111111
318,ID450622219,6 Gerald St,MURRUMBEENA,1820000.0,h,8/07/2017,4,2.0,1.0,632.0,104.0,-37.89465,145.06984,19919,540.799889567668,3909.230769230769,0,42.57142857142857,147.0,51.333333333333336
319,ID621864193,1/23 Charming St,HAMPTON EAST,1140000.0,h,1/07/2017,3,1.0,2.0,1469.0,9.0,-37.93433,145.02983999999995,19937,605.6581975492185,2205.0,0,153.08695652173913,1704.7333333333333,324.8888888888889
320,ID317967967,2 Cranwell Sq,CAROLINE SPRINGS,430000.0,t,8/07/2017,3,2.0,2.0,194.0,9.0,-37.7253,144.7484,20000,3520.481478281687,2160.0,0,161.04166666666666,848.4666666666667,160.0
321,ID246824690,1/35 William St,ESSENDON,740000.0,u,24/09/2016,2,1.0,1.0,250.0,31.0,-37.7457,144.9061,20036,1316.8922714466794,2032.5,1,143.04166666666666,1283.5625,102.45454545454545
322,ID180477412,226 Union Rd,SURREY HILLS,2200000.0,h,3/09/2016,5,3.0,2.0,735.0,99.0,-37.8175,145.0987,19896,637.7718820176855,1452.0,0,300.4583333333333,919.8235294117648,195.55555555555554
323,ID986654975,8/6 Irving St,MALVERN,740000.0,u,25/02/2017,2,1.0,1.0,0.0,52.0,-37.8597,145.0322,19944,772.9083088204288,1980.0,0,102.47619047619048,352.6,106.22222222222223
